[Satellite]
VERSION=1.1
NAME=SUOMI NPP
NICKNAME=SUOMI NPP
TLE1=1 37849U 11061A   22342.60268337  .00000086  00000+0  61820-4 0  9992
TLE2=2 37849  98.7505 278.8526 0001193  99.2255  81.5080 14.19523860575908
STATUS=1
